{"fetched_at":"2026-03-29T16:36:15Z","count":15609,"tles":[{"name":"STARLINK-31368","line1":"1 58970U 24031F   26087.80542202  .00001885  00000+0  75772-4 0  9998","line2":"2 58970  53.1602 207.6457 0001096  80.6313 279.4812 15.30189414119466","category":"Starlink"}]}