{
  "norad_id": 58970,
  "name": "STARLINK-31368",
  "history": [
    {
      "epoch": "2026-03-28T19:19:48.462528Z",
      "apogee_km": 475.99828807731774,
      "perigee_km": 474.495066901497,
      "latitude_deg": 2.5531432136206796e-05,
      "longitude_deg": 91.47319576442428,
      "height_km": 476.02267129672254,
      "semi_major_axis_km": 6853.383677489407,
      "eccentricity": 0.00010967,
      "inclination_deg": 53.1602,
      "raan_deg": 207.6457,
      "arg_perigee_deg": 80.6313,
      "mean_anomaly_deg": 279.4812,
      "mean_motion_rev_day": 15.30189414
    }
  ]
}